ONEWEB-0275             
1 48993U 21060AC  24200.89337215  .00000063  00000+0  13196-3 0  9999
2 48993  87.9109   7.7950 0001715  86.3641 273.7686 13.16594172147672
ONEWEB-0276             
1 48994U 21060AD  24201.00261325  .00000088  00000+0  19719-3 0  9996
2 48994  87.9111   7.7696 0001601  83.6644 276.4669 13.16593518149003
ONEWEB-0277             
1 48995U 21060AE  24200.93928447  .00000000  00000+0 -33713-4 0  9999
2 48995  87.9111   7.8199 0001715  73.6978 286.4342 13.16594247147689
ONEWEB-0278             
1 48996U 21060AF  24200.92978088  .00000068  00000+0  14555-3 0  9990
2 48996  87.9111   7.7810 0001577  99.6142 260.5167 13.16593986147818
ONEWEB-0279             
1 48997U 21060AG  24201.01369284 -.00000047  00000+0 -15695-3 0  9999
2 48997  87.9110   7.7617 0001802  77.5824 282.5509 13.16596587149058
ONEWEB-0280             
1 48998U 21060AH  24200.87595667 -.00000055  00000+0 -17834-3 0  9995
2 48998  87.9111   7.7905 0001544  90.8703 269.2605 13.16594095147674
ONEWEB-0281             
1 48999U 21060AJ  24200.88228336 -.00000009  00000+0 -58201-4 0  9996
2 48999  87.9112   7.7910 0002029  92.2091 267.9273 13.16593745147742
ONEWEB-0282             
1 49000U 21060AK  24200.91237167  .00000132  00000+0  31195-3 0  9993
2 49000  87.9110   7.8018 0001565  82.2199 277.9109 13.16594354147720
